{
 "generated_at": "2026-07-19T07:26:41Z",
 "sources": [
  {
   "name": "CelesTrak",
   "url": "https://celestrak.org/NORAD/elements/",
   "license": "frei verfügbar; Attribution. Ursprünglich USSPACECOM/Space-Track."
  },
  {
   "name": "GCAT (J. McDowell, planet4589.org)",
   "url": "https://planet4589.org/space/gcat/",
   "license": "CC-BY 4.0"
  }
 ],
 "satellites": [
  {
   "norad": 59371,
   "name": "RESURS-P 4",
   "intl": "2024-061A",
   "group": "resource",
   "gcat": {
    "class": "C",
    "category": "IMG",
    "owner": "TSSKBP?",
    "state": "RU"
   },
   "omm": {
    "OBJECT_NAME": "RESURS-P 4",
    "OBJECT_ID": "2024-061A",
    "EPOCH": "2026-07-18T20:55:26.056704",
    "MEAN_MOTION": 15.32292631,
    "ECCENTRICITY": 0.0003212,
    "INCLINATION": 97.276,
    "RA_OF_ASC_NODE": 147.2244,
    "ARG_OF_PERICENTER": 83.9793,
    "MEAN_ANOMALY": 276.1815,
    "EPHEMERIS_TYPE": 0,
    "CLASSIFICATION_TYPE": "U",
    "NORAD_CAT_ID": 59371,
    "ELEMENT_SET_NO": 999,
    "REV_AT_EPOCH": 12861,
    "BSTAR": 0.000053782,
    "MEAN_MOTION_DOT": 0.00001601,
    "MEAN_MOTION_DDOT": 0
   }
  },
  {
   "norad": 44233,
   "name": "RISAT-2B",
   "intl": "2019-028A",
   "group": "sar",
   "gcat": {
    "class": "C",
    "category": "IMG-R",
    "owner": "ISRO",
    "state": "IN"
   },
   "omm": {
    "OBJECT_NAME": "RISAT-2B",
    "OBJECT_ID": "2019-028A",
    "EPOCH": "2026-07-18T19:19:39.457056",
    "MEAN_MOTION": 15.01091821,
    "ECCENTRICITY": 0.0008844,
    "INCLINATION": 36.9959,
    "RA_OF_ASC_NODE": 166.5995,
    "ARG_OF_PERICENTER": 288.4275,
    "MEAN_ANOMALY": 71.5506,
    "EPHEMERIS_TYPE": 0,
    "CLASSIFICATION_TYPE": "U",
    "NORAD_CAT_ID": 44233,
    "ELEMENT_SET_NO": 999,
    "REV_AT_EPOCH": 39258,
    "BSTAR": 0.000086522,
    "MEAN_MOTION_DOT": 0.00001048,
    "MEAN_MOTION_DDOT": 0
   }
  },
  {
   "norad": 44857,
   "name": "RISAT-2BR1",
   "intl": "2019-089F",
   "group": "sar",
   "gcat": {
    "class": "C",
    "category": "IMG-R",
    "owner": "ISRO",
    "state": "IN"
   },
   "omm": {
    "OBJECT_NAME": "RISAT-2BR1",
    "OBJECT_ID": "2019-089F",
    "EPOCH": "2026-07-18T14:35:03.941664",
    "MEAN_MOTION": 15.01169923,
    "ECCENTRICITY": 0.0009268,
    "INCLINATION": 36.9609,
    "RA_OF_ASC_NODE": 285.2066,
    "ARG_OF_PERICENTER": 76.2252,
    "MEAN_ANOMALY": 283.9521,
    "EPHEMERIS_TYPE": 0,
    "CLASSIFICATION_TYPE": "U",
    "NORAD_CAT_ID": 44857,
    "ELEMENT_SET_NO": 999,
    "REV_AT_EPOCH": 36192,
    "BSTAR": 0.00010754,
    "MEAN_MOTION_DOT": 0.00001326,
    "MEAN_MOTION_DDOT": 0
   }
  },
  {
   "norad": 46905,
   "name": "RISAT-2BR2",
   "intl": "2020-081A",
   "group": "sar",
   "gcat": {
    "class": "C",
    "category": "IMG-R",
    "owner": "ISRO",
    "state": "IN"
   },
   "omm": {
    "OBJECT_NAME": "RISAT-2BR2",
    "OBJECT_ID": "2020-081A",
    "EPOCH": "2026-07-18T20:54:50.749344",
    "MEAN_MOTION": 15.01189442,
    "ECCENTRICITY": 0.0012748,
    "INCLINATION": 36.8994,
    "RA_OF_ASC_NODE": 36.1852,
    "ARG_OF_PERICENTER": 51.0631,
    "MEAN_ANOMALY": 309.1245,
    "EPHEMERIS_TYPE": 0,
    "CLASSIFICATION_TYPE": "U",
    "NORAD_CAT_ID": 46905,
    "ELEMENT_SET_NO": 999,
    "REV_AT_EPOCH": 31223,
    "BSTAR": 0.00012394,
    "MEAN_MOTION_DOT": 0.00001543,
    "MEAN_MOTION_DDOT": 0
   }
  },
  {
   "norad": 43641,
   "name": "SAOCOM 1A",
   "intl": "2018-076A",
   "group": "sar",
   "gcat": {
    "class": "C",
    "category": "IMG-R",
    "owner": "CONAE",
    "state": "AR"
   },
   "omm": {
    "OBJECT_NAME": "SAOCOM 1A",
    "OBJECT_ID": "2018-076A",
    "EPOCH": "2026-07-18T19:09:51.154272",
    "MEAN_MOTION": 14.82148091,
    "ECCENTRICITY": 0.0001429,
    "INCLINATION": 97.8885,
    "RA_OF_ASC_NODE": 26.0874,
    "ARG_OF_PERICENTER": 86.3308,
    "MEAN_ANOMALY": 273.8068,
    "EPHEMERIS_TYPE": 0,
    "CLASSIFICATION_TYPE": "U",
    "NORAD_CAT_ID": 43641,
    "ELEMENT_SET_NO": 999,
    "REV_AT_EPOCH": 42078,
    "BSTAR": 0.000027032,
    "MEAN_MOTION_DOT": 0.00000163,
    "MEAN_MOTION_DDOT": 0
   }
  },
  {
   "norad": 46265,
   "name": "SAOCOM 1B",
   "intl": "2020-059A",
   "group": "sar",
   "gcat": {
    "class": "C",
    "category": "IMG-R",
    "owner": "CONAE",
    "state": "AR"
   },
   "omm": {
    "OBJECT_NAME": "SAOCOM 1B",
    "OBJECT_ID": "2020-059A",
    "EPOCH": "2026-07-18T19:54:46.302048",
    "MEAN_MOTION": 14.821467,
    "ECCENTRICITY": 0.000152,
    "INCLINATION": 97.8891,
    "RA_OF_ASC_NODE": 25.2147,
    "ARG_OF_PERICENTER": 83.4282,
    "MEAN_ANOMALY": 276.7104,
    "EPHEMERIS_TYPE": 0,
    "CLASSIFICATION_TYPE": "U",
    "NORAD_CAT_ID": 46265,
    "ELEMENT_SET_NO": 999,
    "REV_AT_EPOCH": 31817,
    "BSTAR": 0.000084573,
    "MEAN_MOTION_DOT": 0.00000621,
    "MEAN_MOTION_DDOT": 0
   }
  },
  {
   "norad": 31797,
   "name": "SAR-LUPE 2",
   "intl": "2007-030A",
   "group": "sar",
   "gcat": {
    "class": "D",
    "category": "IMG-R",
    "owner": "BWB",
    "state": "D"
   },
   "omm": {
    "OBJECT_NAME": "SAR-LUPE 2",
    "OBJECT_ID": "2007-030A",
    "EPOCH": "2026-07-18T19:17:46.857984",
    "MEAN_MOTION": 15.54134505,
    "ECCENTRICITY": 0.0004941,
    "INCLINATION": 98.1066,
    "RA_OF_ASC_NODE": 308.2727,
    "ARG_OF_PERICENTER": 208.153,
    "MEAN_ANOMALY": 151.9455,
    "EPHEMERIS_TYPE": 0,
    "CLASSIFICATION_TYPE": "U",
    "NORAD_CAT_ID": 31797,
    "ELEMENT_SET_NO": 999,
    "REV_AT_EPOCH": 6184,
    "BSTAR": 0.00034238,
    "MEAN_MOTION_DOT": 0.00022168,
    "MEAN_MOTION_DDOT": 0
   }
  },
  {
   "norad": 39086,
   "name": "SARAL",
   "intl": "2013-009A",
   "group": "resource",
   "gcat": {
    "class": "C",
    "category": "SCI",
    "owner": "ISRO/CNES",
    "state": "IN"
   },
   "omm": {
    "OBJECT_NAME": "SARAL",
    "OBJECT_ID": "2013-009A",
    "EPOCH": "2026-07-18T19:31:19.131168",
    "MEAN_MOTION": 14.32896315,
    "ECCENTRICITY": 0.0001921,
    "INCLINATION": 98.5558,
    "RA_OF_ASC_NODE": 25.9809,
    "ARG_OF_PERICENTER": 158.4364,
    "MEAN_ANOMALY": 201.6901,
    "EPHEMERIS_TYPE": 0,
    "CLASSIFICATION_TYPE": "U",
    "NORAD_CAT_ID": 39086,
    "ELEMENT_SET_NO": 999,
    "REV_AT_EPOCH": 70013,
    "BSTAR": 0.000020129,
    "MEAN_MOTION_DOT": 1.1e-7,
    "MEAN_MOTION_DDOT": 0
   }
  },
  {
   "norad": 43831,
   "name": "SAUDISAT 5A",
   "intl": "2018-102A",
   "group": "resource",
   "gcat": {
    "class": "C",
    "category": "TECH",
    "owner": "KACST",
    "state": "SA"
   },
   "omm": {
    "OBJECT_NAME": "SAUDISAT 5A",
    "OBJECT_ID": "2018-102A",
    "EPOCH": "2026-07-18T20:33:09.623232",
    "MEAN_MOTION": 15.28341706,
    "ECCENTRICITY": 0.0010097,
    "INCLINATION": 97.3046,
    "RA_OF_ASC_NODE": 260.8301,
    "ARG_OF_PERICENTER": 31.9494,
    "MEAN_ANOMALY": 328.2357,
    "EPHEMERIS_TYPE": 0,
    "CLASSIFICATION_TYPE": "U",
    "NORAD_CAT_ID": 43831,
    "ELEMENT_SET_NO": 999,
    "REV_AT_EPOCH": 42051,
    "BSTAR": 0.000099496,
    "MEAN_MOTION_DOT": 0.00002676,
    "MEAN_MOTION_DDOT": 0
   }
  },
  {
   "norad": 43833,
   "name": "SAUDISAT 5B",
   "intl": "2018-102C",
   "group": "resource",
   "gcat": {
    "class": "C",
    "category": "TECH",
    "owner": "KACST",
    "state": "SA"
   },
   "omm": {
    "OBJECT_NAME": "SAUDISAT 5B",
    "OBJECT_ID": "2018-102C",
    "EPOCH": "2026-07-18T20:52:52.300992",
    "MEAN_MOTION": 15.28583797,
    "ECCENTRICITY": 0.001087,
    "INCLINATION": 97.3155,
    "RA_OF_ASC_NODE": 263.9707,
    "ARG_OF_PERICENTER": 33.2247,
    "MEAN_ANOMALY": 326.9673,
    "EPHEMERIS_TYPE": 0,
    "CLASSIFICATION_TYPE": "U",
    "NORAD_CAT_ID": 43833,
    "ELEMENT_SET_NO": 999,
    "REV_AT_EPOCH": 42063,
    "BSTAR": 0.000093659,
    "MEAN_MOTION_DOT": 0.00002534,
    "MEAN_MOTION_DDOT": 0
   }
  }
 ]
}
